{"fetched_at":"2026-03-30T06:02:59Z","count":15439,"tles":[{"name":"STARLINK-5914","line1":"1 55941U 23037AD  26087.76339190  .00000209  00000+0  25311-4 0  9996","line2":"2 55941  69.9995 236.5064 0003201 267.5527  92.5265 14.98331450166830","category":"Starlink"}]}