{
  "norad_id": 55941,
  "name": "STARLINK-5914",
  "history": [
    {
      "epoch": "2026-03-28T18:19:17.060160",
      "apogee_km": 574.2765792630107,
      "perigee_km": 569.8262346222764,
      "latitude_deg": -66.84812009295202,
      "longitude_deg": -152.61437759990804,
      "semi_major_axis_km": 6950.188406942643,
      "eccentricity": 0.00032016,
      "inclination_deg": 69.9995,
      "raan_deg": 236.5064,
      "arg_perigee_deg": 267.5527,
      "mean_anomaly_deg": 92.5265,
      "mean_motion_rev_day": 14.9833145
    }
  ]
}